{
  "type": "FeatureCollection",
  "features": [
    {
      "type": "Feature",
      "properties": {
        "norad_id": 40889,
        "name": "GSAT0205 (GALILEO 9)",
        "group": "galileo",
        "lat": 54.11860136636177,
        "lon": -28.60114280592064,
        "alt_km": 23207.172748597903,
        "timestamp": "2025-12-12T20:43:07.297919+00:00",
        "meta_object_name": "GSAT0205 (GALILEO 9)",
        "meta_object_id": "2015-045A",
        "meta_epoch": "2025-12-10T08:33:32.148576",
        "meta_mean_motion": 1.7047308,
        "meta_eccentricity": 0.0005904,
        "meta_inclination": 55.0041,
        "meta_ra_of_asc_node": 226.8241,
        "meta_arg_of_pericenter": 38.7722,
        "meta_mean_anomaly": 321.3515,
        "meta_ephemeris_type": 0,
        "meta_classification_type": "U",
        "meta_norad_cat_id": 40889,
        "meta_element_set_no": 999,
        "meta_rev_at_epoch": 6379,
        "meta_bstar": 0,
        "meta_mean_motion_dot": 9e-08,
        "meta_mean_motion_ddot": 0,
        "tle_line1": "1 40889U 15045A   25344.35662209  .00000009  00000+0  00000+0 0  9992",
        "tle_line2": "2 40889  55.0041 226.8241 0005904  38.7722 321.3515  1.70473080 63793"
      },
      "geometry": {
        "type": "Point",
        "coordinates": [
          -28.60114280592064,
          54.11860136636177
        ]
      }
    },
    {
      "type": "Feature",
      "properties": {
        "norad_id": 40890,
        "name": "GSAT0206 (GALILEO 10)",
        "group": "galileo",
        "lat": -29.57011045829701,
        "lon": -156.64215518013214,
        "alt_km": 23222.89334907034,
        "timestamp": "2025-12-12T20:43:07.297930+00:00",
        "meta_object_name": "GSAT0206 (GALILEO 10)",
        "meta_object_id": "2015-045B",
        "meta_epoch": "2025-12-11T03:55:56.933760",
        "meta_mean_motion": 1.70473071,
        "meta_eccentricity": 0.00038554,
        "meta_inclination": 55.0029,
        "meta_ra_of_asc_node": 226.7968,
        "meta_arg_of_pericenter": 36.8797,
        "meta_mean_anomaly": 323.2259,
        "meta_ephemeris_type": 0,
        "meta_classification_type": "U",
        "meta_norad_cat_id": 40890,
        "meta_element_set_no": 999,
        "meta_rev_at_epoch": 6383,
        "meta_bstar": 0,
        "meta_mean_motion_dot": 9e-08,
        "meta_mean_motion_ddot": 0,
        "tle_line1": "1 40890U 15045B   25345.16385340  .00000009  00000+0  00000+0 0  9992",
        "tle_line2": "2 40890  55.0029 226.7968 0003855  36.8797 323.2259  1.70473071 63831"
      },
      "geometry": {
        "type": "Point",
        "coordinates": [
          -156.64215518013214,
          -29.57011045829701
        ]
      }
    },
    {
      "type": "Feature",
      "properties": {
        "norad_id": 41174,
        "name": "GSAT0209 (GALILEO 12)",
        "group": "galileo",
        "lat": -31.94014445230013,
        "lon": -48.4857958914015,
        "alt_km": 23230.900293949464,
        "timestamp": "2025-12-12T20:43:07.297941+00:00",
        "meta_object_name": "GSAT0209 (GALILEO 12)",
        "meta_object_id": "2015-079A",
        "meta_epoch": "2025-12-10T17:53:22.611840",
        "meta_mean_motion": 1.70474458,
        "meta_eccentricity": 0.00024095,
        "meta_inclination": 55.7117,
        "meta_ra_of_asc_node": 106.4357,
        "meta_arg_of_pericenter": 351.4479,
        "meta_mean_anomaly": 8.5179,
        "meta_ephemeris_type": 0,
        "meta_classification_type": "U",
        "meta_norad_cat_id": 41174,
        "meta_element_set_no": 999,
        "meta_rev_at_epoch": 6156,
        "meta_bstar": 0,
        "meta_mean_motion_dot": 1.1e-07,
        "meta_mean_motion_ddot": 0,
        "tle_line1": "1 41174U 15079A   25344.74540060  .00000011  00000+0  00000+0 0  9993",
        "tle_line2": "2 41174  55.7117 106.4357 0002409 351.4479   8.5179  1.70474458 61567"
      },
      "geometry": {
        "type": "Point",
        "coordinates": [
          -48.4857958914015,
          -31.94014445230013
        ]
      }
    },
    {
      "type": "Feature",
      "properties": {
        "norad_id": 41175,
        "name": "GSAT0208 (GALILEO 11)",
        "group": "galileo",
        "lat": 55.36215246011713,
        "lon": -172.96016463406352,
        "alt_km": 23214.97223078768,
        "timestamp": "2025-12-12T20:43:07.297953+00:00",
        "meta_object_name": "GSAT0208 (GALILEO 11)",
        "meta_object_id": "2015-079B",
        "meta_epoch": "2025-12-08T14:51:40.201056",
        "meta_mean_motion": 1.70474231,
        "meta_eccentricity": 0.0001859,
        "meta_inclination": 55.7088,
        "meta_ra_of_asc_node": 106.4912,
        "meta_arg_of_pericenter": 3.1611,
        "meta_mean_anomaly": 356.8026,
        "meta_ephemeris_type": 0,
        "meta_classification_type": "U",
        "meta_norad_cat_id": 41175,
        "meta_element_set_no": 999,
        "meta_rev_at_epoch": 6194,
        "meta_bstar": 0,
        "meta_mean_motion_dot": 1e-07,
        "meta_mean_motion_ddot": 0,
        "tle_line1": "1 41175U 15079B   25342.61921529  .00000010  00000+0  00000+0 0  9990",
        "tle_line2": "2 41175  55.7088 106.4912 0001859   3.1611 356.8026  1.70474231 61940"
      },
      "geometry": {
        "type": "Point",
        "coordinates": [
          -172.96016463406352,
          55.36215246011713
        ]
      }
    },
    {
      "type": "Feature",
      "properties": {
        "norad_id": 41549,
        "name": "GSAT0211 (GALILEO 14)",
        "group": "galileo",
        "lat": 6.99771647542408,
        "lon": -128.27183486176762,
        "alt_km": 23209.583002000876,
        "timestamp": "2025-12-12T20:43:07.297978+00:00",
        "meta_object_name": "GSAT0211 (GALILEO 14)",
        "meta_object_id": "2016-030A",
        "meta_epoch": "2025-12-11T02:09:03.353760",
        "meta_mean_motion": 1.70473055,
        "meta_eccentricity": 0.00041282,
        "meta_inclination": 55.1527,
        "meta_ra_of_asc_node": 226.8689,
        "meta_arg_of_pericenter": 18.4657,
        "meta_mean_anomaly": 341.6286,
        "meta_ephemeris_type": 0,
        "meta_classification_type": "U",
        "meta_norad_cat_id": 41549,
        "meta_element_set_no": 999,
        "meta_rev_at_epoch": 5946,
        "meta_bstar": 0,
        "meta_mean_motion_dot": 9e-08,
        "meta_mean_motion_ddot": 0,
        "tle_line1": "1 41549U 16030A   25345.08962215  .00000009  00000+0  00000+0 0  9992",
        "tle_line2": "2 41549  55.1527 226.8689 0004128  18.4657 341.6286  1.70473055 59463"
      },
      "geometry": {
        "type": "Point",
        "coordinates": [
          -128.27183486176762,
          6.99771647542408
        ]
      }
    },
    {
      "type": "Feature",
      "properties": {
        "norad_id": 41550,
        "name": "GSAT0210 (GALILEO 13)",
        "group": "galileo",
        "lat": -24.689449670163306,
        "lon": 65.48788508568447,
        "alt_km": 23222.47317802437,
        "timestamp": "2025-12-12T20:43:07.297992+00:00",
        "meta_object_name": "GSAT0210 (GALILEO 13)",
        "meta_object_id": "2016-030B",
        "meta_epoch": "2025-12-11T08:19:41.751264",
        "meta_mean_motion": 1.70473653,
        "meta_eccentricity": 0.00011945,
        "meta_inclination": 55.152,
        "meta_ra_of_asc_node": 226.8599,
        "meta_arg_of_pericenter": 242.2312,
        "meta_mean_anomaly": 117.8354,
        "meta_ephemeris_type": 0,
        "meta_classification_type": "U",
        "meta_norad_cat_id": 41550,
        "meta_element_set_no": 999,
        "meta_rev_at_epoch": 5946,
        "meta_bstar": 0,
        "meta_mean_motion_dot": 1e-07,
        "meta_mean_motion_ddot": 0,
        "tle_line1": "1 41550U 16030B   25345.34701101  .00000010  00000+0  00000+0 0  9990",
        "tle_line2": "2 41550  55.1520 226.8599 0001194 242.2312 117.8354  1.70473653 59466"
      },
      "geometry": {
        "type": "Point",
        "coordinates": [
          65.48788508568447,
          -24.689449670163306
        ]
      }
    },
    {
      "type": "Feature",
      "properties": {
        "norad_id": 41859,
        "name": "GSAT0207 (GALILEO 15)",
        "group": "galileo",
        "lat": 31.786051410799192,
        "lon": 131.55562204278104,
        "alt_km": 23216.67398645141,
        "timestamp": "2025-12-12T20:43:07.298004+00:00",
        "meta_object_name": "GSAT0207 (GALILEO 15)",
        "meta_object_id": "2016-069A",
        "meta_epoch": "2025-12-09T20:46:23.344608",
        "meta_mean_motion": 1.70474355,
        "meta_eccentricity": 0.00021941,
        "meta_inclination": 55.3802,
        "meta_ra_of_asc_node": 106.3298,
        "meta_arg_of_pericenter": 323.9491,
        "meta_mean_anomaly": 36.0038,
        "meta_ephemeris_type": 0,
        "meta_classification_type": "U",
        "meta_norad_cat_id": 41859,
        "meta_element_set_no": 999,
        "meta_rev_at_epoch": 5617,
        "meta_bstar": 0,
        "meta_mean_motion_dot": 1.1e-07,
        "meta_mean_motion_ddot": 0,
        "tle_line1": "1 41859U 16069A   25343.86554797  .00000011  00000+0  00000+0 0  9997",
        "tle_line2": "2 41859  55.3802 106.3298 0002194 323.9491  36.0038  1.70474355 56173"
      },
      "geometry": {
        "type": "Point",
        "coordinates": [
          131.55562204278104,
          31.786051410799192
        ]
      }
    }
  ]
}